[{"OBJECT_NAME":"SHIYAN-20C (SY-20C)","OBJECT_ID":"2022-142A","EPOCH":"2026-03-09T23:50:52.089216","MEAN_MOTION":14.29489925,"ECCENTRICITY":0.00131159,"INCLINATION":59.9943,"RA_OF_ASC_NODE":268.1651,"ARG_OF_PERICENTER":188.0899,"MEAN_ANOMALY":171.9927,"EPHEMERIS_TYPE":0,"CLASSIFICATION_TYPE":"U","NORAD_CAT_ID":54214,"ELEMENT_SET_NO":999,"REV_AT_EPOCH":17551,"BSTAR":7.6576353e-5,"MEAN_MOTION_DOT":6.0e-7,"MEAN_MOTION_DDOT":0},{"OBJECT_NAME":"COSMOS 1275 DEB","OBJECT_ID":"1981-053SS","EPOCH":"2026-02-21T14:19:18.263424","MEAN_MOTION":14.29025622,"ECCENTRICITY":0.0007274,"INCLINATION":82.941,"RA_OF_ASC_NODE":158.4533,"ARG_OF_PERICENTER":287.7364,"MEAN_ANOMALY":72.3028,"EPHEMERIS_TYPE":0,"CLASSIFICATION_TYPE":"U","NORAD_CAT_ID":42178,"ELEMENT_SET_NO":999,"REV_AT_EPOCH":61444,"BSTAR":0.0012558,"MEAN_MOTION_DOT":3.194e-5,"MEAN_MOTION_DDOT":0}]
